[ {"name": "STARLINK-11397 [DTC]", "line1": "1 62590U 25008D   26094.65849675  .00340782  00000+0  25273-2 0  9992", "line2": "2 62590  42.9987 329.1701 0002029 241.5849 118.4814 15.71071378 71311"}, {"name": "STARLINK-11420 [DTC]", "line1": "1 62591U 25008E   26094.70096668  .00402197  00000+0  29499-2 0  9998", "line2": "2 62591  42.9992 329.5106 0002161 235.6103 124.4560 15.71152080 71387"}, {"name": "STARLINK-11415 [DTC]", "line1": "1 62592U 25008F   26094.65331614  .00366578  00000+0  27112-2 0  9998", "line2": "2 62592  42.9994 330.0229 0001609 219.1327 140.9424 15.71058409 71308"}, {"name": "STARLINK-11413 [DTC]", "line1": "1 62593U 25008G   26094.07577531  .00249187  00000+0  18860-2 0  9991", "line2": "2 62593  42.9991 333.4283 0001211 239.7946 120.2802 15.70863317 71174"}, {"name": "STARLINK-11416 [DTC]", "line1": "1 62594U 25008H   26094.83335647  .00043188  00000+0  31576-3 0  9999", "line2": "2 62594  42.9995 328.1831 0003232 257.2890 332.0400 15.72471763  5915"}, {"name": "STARLINK-11535 [DTC]", "line1": "1 62595U 25008J   26094.66380507  .00209484  00000+0  15872-2 0  9999", "line2": "2 62595  43.0003 329.2098 0001909 271.5734  88.4915 15.70960216 71224"}, {"name": "STARLINK-11521 [DTC]", "line1": "1 62597U 25008L   26094.04391587  .00331733  00000+0  24828-2 0  9997", "line2": "2 62597  42.9997 333.1701 0001698 275.6891  84.3783 15.70879572 71272"}, {"name": "STARLINK-11258 [DTC]", "line1": "1 62598U 25008M   26094.36714908  .00357585  00000+0  26610-2 0  9993", "line2": "2 62598  43.0000 331.2960 0000376 157.1705 202.9179 15.70936887 71322"}, {"name": "STARLINK-11529 [DTC]", "line1": "1 62599U 25008N   26094.37245387  .00331364  00000+0  24730-2 0  9993", "line2": "2 62599  43.0001 331.3378 0001430 299.6103  60.4622 15.70948908 71332"}, {"name": "STARLINK-32747", "line1": "1 62600U 25008P   26094.47186431  .00024844  00000+0  90938-3 0  9997", "line2": "2 62600  43.0003 132.6490 0001354 253.9430 106.1273 15.27576870 69508"}, {"name": "STARLINK-32767", "line1": "1 62601U 25008Q   26094.50126907  .00029963  00000+0  10943-2 0  9998", "line2": "2 62601  43.0011 132.0015 0001833 273.6345  86.4297 15.27569914 69575"}, {"name": "STARLINK-32769", "line1": "1 62602U 25008R   26094.37435212  .00036326  00000+0  13240-2 0  9990", "line2": "2 62602  43.0007 132.7656 0001441 280.8887  79.1802 15.27557114 69553"}, {"name": "STARLINK-32778", "line1": "1 62603U 25008S   26094.48342177  .00031832  00000+0  11612-2 0  9998", "line2": "2 62603  43.0067 132.7358 0002870 275.2801  84.7723 15.27580564 69504"}, {"name": "STARLINK-32710", "line1": "1 62604U 25008T   26094.48713483  .00031334  00000+0  11438-2 0  9994", "line2": "2 62604  43.0045 131.8940 0001714 287.4161  72.6503 15.27566407 69511"}, {"name": "STARLINK-32742", "line1": "1 62605U 25008U   26094.49099342  .00026861  00000+0  98179-3 0  9994", "line2": "2 62605  43.0049 131.9244 0001964 279.3512  80.7118 15.27589741 69564"}, {"name": "STARLINK-32783", "line1": "1 62606U 25008V   26094.50900239  .00035253  00000+0  12840-2 0  9998", "line2": "2 62606  43.0003 132.0590 0001721 247.7859 112.2810 15.27591413 69519"}, {"name": "STARLINK-32784", "line1": "1 62607U 25008W   26094.45334025  .00108172  00000+0  29770-2 0  9998", "line2": "2 62607  42.9957 129.8945 0008819  92.9218 267.2646 15.36045253 69590"}, {"name": "STARLINK-32806", "line1": "1 62735U 25014A   26094.76804760  .00031738  00000+0  11573-2 0  9994", "line2": "2 62735  42.9996   7.2992 0000630 279.1089  80.9691 15.27596961 67241"}, {"name": "STARLINK-32329", "line1": "1 62736U 25014B   26094.74877278  .00027346  00000+0  99889-3 0  9994", "line2": "2 62736  43.0034   7.1467 0001370 268.1587  91.9107 15.27603034 67240"}, {"name": "STARLINK-32774", "line1": "1 62737U 25014C   26094.47518551  .00028179  00000+0  10306-2 0  9992", "line2": "2 62737  43.0071  11.9957 0001014 242.7867 117.2882 15.27549349 67164"}, {"name": "STARLINK-32802", "line1": "1 62738U 25014D   26094.46667357  .00029013  00000+0  10594-2 0  9998", "line2": "2 62738  43.0013   8.4682 0001153 272.0306  88.0414 15.27588183 67205"}, {"name": "STARLINK-32796", "line1": "1 62739U 25014E   26094.79101779  .00038963  00000+0  14164-2 0  9997", "line2": "2 62739  43.0017   6.6046 0001739 259.6295 100.4361 15.27616542 67258"}, {"name": "STARLINK-32805", "line1": "1 62740U 25014F   26094.45653813  .00019722  00000+0  72443-3 0  9990", "line2": "2 62740  43.0003   9.2655 0000848 240.6777 119.3990 15.27572971 67192"}, {"name": "STARLINK-32770", "line1": "1 62741U 25014G   26094.80387420  .00036792  00000+0  13347-2 0  9991", "line2": "2 62741  43.0028   6.7067 0005509  77.2732 282.8735 15.27695686 67252"}, {"name": "STARLINK-32775", "line1": "1 62742U 25014H   26094.48849810  .00070558  00000+0  25426-2 0  9991", "line2": "2 62742  43.0089   8.6335 0002543 256.3841 103.6728 15.27663611 67205"}, {"name": "STARLINK-32800", "line1": "1 62743U 25014J   26093.80554672  .00028993  00000+0  10587-2 0  9994", "line2": "2 62743  43.0021  19.8922 0000821 261.3007  98.7751 15.27589869 67016"}, {"name": "STARLINK-32758", "line1": "1 62744U 25014K   26094.81496016  .00030469  00000+0  11119-2 0  9997", "line2": "2 62744  43.0052  10.2463 0002063 270.1549  89.9067 15.27588648 67213"}, {"name": "STARLINK-32746", "line1": "1 62745U 25014L   26094.13331202  .00064085  00000+0  23192-2 0  9993", "line2": "2 62745  43.0035  10.2640 0001370 304.4707  55.6015 15.27565635 67156"}, {"name": "STARLINK-32780", "line1": "1 62746U 25014M   26094.45524862  .00051869  00000+0  18817-2 0  9999", "line2": "2 62746  43.0033   9.2483 0001355 276.1983  83.8714 15.27570517 67190"}, {"name": "STARLINK-32765", "line1": "1 62747U 25014N   26094.17185538  .00038962  00000+0  14172-2 0  9991", "line2": "2 62747  42.9987  10.5579 0003495 246.4716 113.5768 15.27592217 67156"}, {"name": "STARLINK-32762", "line1": "1 62748U 25014P   26094.47774891  .00034598  00000+0  12606-2 0  9992", "line2": "2 62748  43.0027  12.0161 0001647 251.9966 108.0706 15.27587019 67169"}, {"name": "STARLINK-32761", "line1": "1 62749U 25014Q   26094.80725226  .00031492  00000+0  11488-2 0  9995", "line2": "2 62749  43.0066  10.1889 0001958 267.1604  92.9024 15.27585573 67215"}, {"name": "STARLINK-32763", "line1": "1 62750U 25014R   26094.47439899  .00036342  00000+0  13225-2 0  9998", "line2": "2 62750  43.0016   8.5266 0000542  34.1531 325.9355 15.27610486 67208"}, {"name": "STARLINK-32759", "line1": "1 62751U 25014S   26094.77398601  .00042274  00000+0  15359-2 0  9998", "line2": "2 62751  42.9996  10.8029 0001158 268.1967  91.8752 15.27601237 67207"}, {"name": "STARLINK-32756", "line1": "1 62752U 25014T   26094.45782125  .00035214  00000+0  12831-2 0  9990", "line2": "2 62752  43.0043   9.2629 0001360 245.1118 114.9592 15.27579401 67193"}, {"name": "STARLINK-32751", "line1": "1 62753U 25014U   26094.45140245  .00039346  00000+0  14317-2 0  9993", "line2": "2 62753  43.0009   9.2195 0001368 275.3507  84.7188 15.27580612 67190"}, {"name": "STARLINK-32740", "line1": "1 62754U 25014V   26094.78974456  .00025646  00000+0  93783-3 0  9992", "line2": "2 62754  43.0010   6.5969 0001046 286.5839  73.4897 15.27593951 67256"}, {"name": "STARLINK-32745", "line1": "1 62755U 25014W   26094.76675907  .00028221  00000+0  10307-2 0  9992", "line2": "2 62755  43.0004   7.2825 0001867 279.4331  80.6310 15.27594200 67245"}, {"name": "STARLINK-33596", "line1": "1 62758U 25015A   26094.59620559  .00042138  00000+0  14294-2 0  9992", "line2": "2 62758  53.1576 202.4000 0001021  99.5571 260.5546 15.30140756 68379"}, {"name": "STARLINK-33589", "line1": "1 62759U 25015B   26094.59412391  .00046221  00000+0  15615-2 0  9991", "line2": "2 62759  53.1574 202.3901 0001382  53.1976 306.9151 15.30231139 67688"}, {"name": "STARLINK-33575", "line1": "1 62760U 25015C   26094.51190307  .00020141  00000+0  69052-3 0  9993", "line2": "2 62760  53.1586 202.5557 0001070  52.2376 307.8721 15.30189044 67679"}, {"name": "STARLINK-33584", "line1": "1 62761U 25015D   26094.56349784  .00066939  00000+0  22456-2 0  9995", "line2": "2 62761  53.1600 202.1979 0001565  66.2188 293.8977 15.30290431 68442"}, {"name": "STARLINK-33577", "line1": "1 62762U 25015E   26094.60877957  .00033343  00000+0  11320-2 0  9990", "line2": "2 62762  53.1607 201.7662 0001090  79.2332 280.8791 15.30224184 68455"}, {"name": "STARLINK-33597", "line1": "1 62763U 25015F   26094.73001980  .00034139  00000+0  11577-2 0  9998", "line2": "2 62763  53.1576 201.8124 0001140  94.6733 265.4398 15.30251052 68464"}, {"name": "STARLINK-33579", "line1": "1 62764U 25015G   26094.60350382  .00040605  00000+0  13744-2 0  9991", "line2": "2 62764  53.1588 201.7366 0001139 106.9450 253.1675 15.30228638 68451"}, {"name": "STARLINK-33592", "line1": "1 62765U 25015H   26094.58039373  .00027886  00000+0  95030-3 0  9998", "line2": "2 62765  53.1582 202.2982 0001291  89.0453 271.0696 15.30193893 68310"}, {"name": "STARLINK-33595", "line1": "1 62766U 25015J   26094.55508232  .00053808  00000+0  18144-2 0  9994", "line2": "2 62766  53.1609 202.1441 0001097  68.4639 291.6479 15.30224388 68446"}, {"name": "STARLINK-33572", "line1": "1 62767U 25015K   26094.70153530  .00060437  00000+0  20327-2 0  9991", "line2": "2 62767  53.1592 201.6360 0001461  66.8716 293.2439 15.30255379 68409"}, {"name": "STARLINK-33601", "line1": "1 62768U 25015L   26094.62988325  .00044831  00000+0  15157-2 0  9996", "line2": "2 62768  53.1602 201.8986 0001074  94.0627 266.0496 15.30219722 68450"}, {"name": "STARLINK-33569", "line1": "1 62769U 25015M   26094.61299907  .00032808  00000+0  11147-2 0  9993", "line2": "2 62769  53.1599 201.7978 0001321  72.6435 287.4710 15.30207532 68452"}, {"name": "STARLINK-33594", "line1": "1 62770U 25015N   26094.67092697  .00046913  00000+0  15850-2 0  9995", "line2": "2 62770  53.1586 201.4472 0001188 118.6598 241.4522 15.30222939 68468"}]